NORAD_CAT_ID,OBJECT_NAME,OBJECT_TYPE,EPOCH,MEAN_MOTION,ECCENTRICITY,INCLINATION,RA_OF_ASC_NODE,ARG_OF_PERICENTER,MEAN_ANOMALY,BSTAR,MEAN_MOTION_DOT,MEAN_MOTION_DDOT,TLE_LINE0,TLE_LINE1,TLE_LINE2,SEMIMAJOR_AXIS,PERIOD,APOGEE,PERIGEE,DECAYED
55426.0,STARLINK-5638,PAYLOAD,2024-01-01 06:32:43,14.98329617,0.0002529,70.0007,297.6873,258.5932,101.4943,-3.1138e-05,-4.64e-06,0.0,0 STARLINK-5638,1 55426U 23014AM  24001.27272624 -.00000464  00000-0 -31138-4 0  9997,2 55426  70.0007 297.6873 0002529 258.5932 101.4943 14.98329617 51022,6950.194,96.107,573.817,570.301,0.0
55426.0,STARLINK-5638,PAYLOAD,2024-01-01 22:34:03,14.98331902,0.0002701,70.0002,296.0035,264.1922,95.8929,6.7536e-05,7.13e-06,0.0,0 STARLINK-5638,1 55426U 23014AM  24001.94032097  .00000713  00000-0  67536-4 0  9995,2 55426  70.0002 296.0035 0002701 264.1922  95.8929 14.98331902 52069,6950.187,96.107,573.929,570.175,0.0
55426.0,STARLINK-5638,PAYLOAD,2024-01-02 03:22:27,14.98333721,0.0002653,70.0003,295.4988,263.0201,97.0656,8.7577e-05,9.52e-06,0.0,0 STARLINK-5638,1 55426U 23014AM  24002.14059886  .00000952  00000-0  87577-4 0  9995,2 55426  70.0003 295.4988 0002653 263.0201  97.0656 14.98333721 51155,6950.181,96.107,573.89,570.203,0.0
55426.0,STARLINK-5638,PAYLOAD,2024-01-02 04:58:35,14.98334942,0.0002717,70.0001,295.3299,266.4574,93.6274,9.2615e-05,1.012e-05,0.0,0 STARLINK-5638,1 55426U 23014AM  24002.20735790  .00001012  00000-0  92615-4 0  9994,2 55426  70.0001 295.3299 0002717 266.4574  93.6274 14.98334942 52108,6950.178,96.107,573.931,570.154,0.0
55426.0,STARLINK-5638,PAYLOAD,2024-01-02 19:23:48,14.98329106,0.0002451,70.0006,293.8157,267.2852,92.8026,7.5496e-06,-3e-08,0.0,0 STARLINK-5638,1 55426U 23014AM  24002.80820387 -.00000003  00000-0  75496-5 0  9996,2 55426  70.0006 293.8157 0002451 267.2852  92.8026 14.98329106 51259,6950.196,96.107,573.764,570.357,0.0
55426.0,STARLINK-5638,PAYLOAD,2024-01-02 22:36:04,14.98328918,0.0002766,70.0,293.4796,258.7943,101.2906,-2.1535e-05,-3.5e-06,0.0,0 STARLINK-5638,1 55426U 23014AM  24002.94172411 -.00000350  00000-0 -21535-4 0  9999,2 55426  70.0000 293.4796 0002766 258.7943 101.2906 14.98328918 52212,6950.196,96.107,573.984,570.139,0.0
55426.0,STARLINK-5638,PAYLOAD,2024-01-03 05:00:37,14.98327974,0.0002813,69.9999,292.8056,264.6465,95.4373,-3.0986e-05,-4.63e-06,0.0,0 STARLINK-5638,1 55426U 23014AM  24003.20876521 -.00000463  00000-0 -30986-4 0  9997,2 55426  69.9999 292.8056 0002813 264.6465  95.4373 14.98327974 52253,6950.199,96.107,574.019,570.109,0.0
55426.0,STARLINK-5638,PAYLOAD,2024-01-03 19:25:49,14.98331894,0.0002919,69.9997,291.2908,265.6407,94.4419,-6.2829e-05,-8.43e-06,0.0,0 STARLINK-5638,1 55426U 23014AM  24003.80960357 -.00000843  00000-0 -62829-4 0  9997,2 55426  69.9997 291.2908 0002919 265.6407  94.4419 14.98331894 51406,6950.187,96.107,574.081,570.023,0.0
55426.0,STARLINK-5638,PAYLOAD,2024-01-03 22:38:05,14.9833213,0.0002944,69.9996,290.9539,266.5575,93.5247,-4.8628e-05,-6.73e-06,0.0,0 STARLINK-5638,1 55426U 23014AM  24003.94312281 -.00000673  00000-0 -48628-4 0  9991,2 55426  69.9996 290.9539 0002944 266.5575  93.5247 14.98332130 52364,6950.186,96.107,574.097,570.005,0.0
55426.0,STARLINK-5638,PAYLOAD,2024-01-04 05:02:37,14.98335332,0.0002823,69.9999,290.2814,262.9212,97.1626,-1.0481e-05,-2.18e-06,0.0,0 STARLINK-5638,1 55426U 23014AM  24004.21015905 -.00000218  00000-0 -10481-4 0  9996,2 55426  69.9999 290.2814 0002823 262.9212  97.1626 14.98335332 52403,6950.176,96.107,574.003,570.079,0.0
55426.0,STARLINK-5638,PAYLOAD,2024-01-04 21:03:58,14.98328913,0.0002793,70.0001,288.5976,262.214,97.8702,5.4987e-05,5.63e-06,0.0,0 STARLINK-5638,1 55426U 23014AM  24004.87776020  .00000563  00000-0  54987-4 0  9990,2 55426  70.0001 288.5976 0002793 262.2140  97.8702 14.98328913 51563,6950.196,96.107,574.002,570.12,0.0
55426.0,STARLINK-5638,PAYLOAD,2024-01-05 05:04:38,14.98331442,0.0002511,70.0002,287.7557,256.166,103.9219,0.00010271,1.133e-05,0.0,0 STARLINK-5638,1 55426U 23014AM  24005.21155745  .00001133  00000-0  10271-3 0  9995,2 55426  70.0002 287.7557 0002511 256.1660 103.9219 14.98331442 52550,6950.188,96.107,573.799,570.308,0.0
55426.0,STARLINK-5638,PAYLOAD,2024-01-05 22:42:07,14.98327287,0.0002693,70.0006,285.9045,267.2193,92.8657,1.2451e-05,5.6e-07,0.0,0 STARLINK-5638,1 55426U 23014AM  24005.94592212  .00000056  00000-0  12451-4 0  9995,2 55426  70.0006 285.9045 0002693 267.2193  92.8657 14.98327287 52667,6950.201,96.107,573.938,570.195,0.0
55426.0,STARLINK-5638,PAYLOAD,2024-01-06 03:30:31,14.98329126,0.000273,70.0,285.3993,269.6775,90.4071,-1.2119e-05,-2.38e-06,0.0,0 STARLINK-5638,1 55426U 23014AM  24006.14620198 -.00000238  00000-0 -12119-4 0  9998,2 55426  70.0000 285.3993 0002730 269.6775  90.4071 14.98329126 51758,6950.196,96.107,573.958,570.163,0.0
55426.0,STARLINK-5638,PAYLOAD,2024-01-06 21:08:00,14.9832997,0.0002975,69.9994,283.5469,269.2831,90.7987,-3.6044e-05,-5.23e-06,0.0,0 STARLINK-5638,1 55426U 23014AM  24006.88056114 -.00000523  00000-0 -36044-4 0  9990,2 55426  69.9994 283.5469 0002975 269.2831  90.7987 14.98329970 52808,6950.193,96.107,574.126,569.99,0.0
55426.0,STARLINK-5638,PAYLOAD,2024-01-07 03:32:32,14.9833214,0.0003166,69.9995,282.8747,271.4946,88.585,1.0596e-05,3.3e-07,0.0,0 STARLINK-5638,1 55426U 23014AM  24007.14759816  .00000033  00000-0  10596-4 0  9997,2 55426  69.9995 282.8747 0003166 271.4946  88.5850 14.98332140 51902,6950.186,96.107,574.252,569.851,0.0
55426.0,STARLINK-5638,PAYLOAD,2024-01-07 05:08:40,14.98331724,0.0002748,69.9997,282.7059,262.946,97.1387,-8.2313e-06,-1.91e-06,0.0,0 STARLINK-5638,1 55426U 23014AM  24007.21435888 -.00000191  00000-0 -82313-5 0  9999,2 55426  69.9997 282.7059 0002748 262.9460  97.1387 14.98331724 52853,6950.188,96.107,573.962,570.143,0.0
55426.0,STARLINK-5638,PAYLOAD,2024-01-07 22:46:09,14.98323947,0.0002665,70.0,280.8554,261.757,98.3286,4.3169e-05,4.22e-06,0.0,0 STARLINK-5638,1 55426U 23014AM  24007.94872252  .00000422  00000-0  43169-4 0  9999,2 55426  70.0000 280.8554 0002665 261.7570  98.3286 14.98323947 52968,6950.212,96.107,573.929,570.224,0.0
55426.0,STARLINK-5638,PAYLOAD,2024-01-08 03:34:33,14.98328319,0.0002775,69.9994,280.3487,268.2053,91.8789,6.7467e-06,-1.2e-07,0.0,0 STARLINK-5638,1 55426U 23014AM  24008.14900133 -.00000012  00000-0  67467-5 0  9996,2 55426  69.9994 280.3487 0002775 268.2053  91.8789 14.98328319 52051,6950.198,96.107,573.992,570.134,0.0
55426.0,STARLINK-5638,PAYLOAD,2024-01-08 22:48:10,14.9832948,0.0002778,69.9993,278.3283,266.5779,93.5062,6.3863e-06,-1.7e-07,0.0,0 STARLINK-5638,1 55426U 23014AM  24008.95012075 -.00000017  00000-0  63863-5 0  9995,2 55426  69.9993 278.3283 0002778 266.5779  93.5062 14.98329480 53111,6950.194,96.107,573.99,570.129,0.0
55426.0,STARLINK-5638,PAYLOAD,2024-01-09 03:36:34,14.98332709,0.0002744,69.9994,277.8237,266.187,93.8976,4.3253e-05,4.23e-06,0.0,0 STARLINK-5638,1 55426U 23014AM  24009.15039756  .00000423  00000-0  43253-4 0  9993,2 55426  69.9994 277.8237 0002744 266.1870  93.8976 14.98332709 52200,6950.185,96.107,573.957,570.142,0.0
55426.0,STARLINK-5638,PAYLOAD,2024-01-09 19:37:55,14.98329886,0.0002763,69.9994,276.1402,268.4845,91.5997,2.3705e-05,1.9e-06,0.0,0 STARLINK-5638,1 55426U 23014AM  24009.81799951  .00000190  00000-0  23705-4 0  9997,2 55426  69.9994 276.1402 0002763 268.4845  91.5997 14.98329886 53249,6950.193,96.107,573.979,570.138,0.0
55426.0,STARLINK-5638,PAYLOAD,2024-01-10 03:38:35,14.98332134,0.0002741,69.9994,275.299,267.9047,92.1798,4.7741e-05,4.77e-06,0.0,0 STARLINK-5638,1 55426U 23014AM  24010.15179721  .00000477  00000-0  47741-4 0  9997,2 55426  69.9994 275.2990 0002741 267.9047  92.1798 14.98332134 52352,6950.186,96.107,573.956,570.146,0.0
55426.0,STARLINK-5638,PAYLOAD,2024-01-11 03:40:36,14.98332172,0.0002528,69.9998,272.7743,261.4831,98.6041,2.0169e-05,1.48e-06,0.0,0 STARLINK-5638,1 55426U 23014AM  24011.15319754  .00000148  00000-0  20169-4 0  9990,2 55426  69.9998 272.7743 0002528 261.4831  98.6041 14.98332172 52508,6950.186,96.107,573.808,570.294,0.0
55426.0,STARLINK-5638,PAYLOAD,2024-01-11 21:18:05,14.98328353,0.0002444,69.9998,270.9226,262.0874,98.0008,-7.1324e-06,-1.78e-06,0.0,0 STARLINK-5638,1 55426U 23014AM  24011.88756022 -.00000178  00000-0 -71324-5 0  9998,2 55426  69.9998 270.9226 0002444 262.0874  98.0008 14.98328353 53554,6950.198,96.107,573.762,570.364,0.0
55426.0,STARLINK-5638,PAYLOAD,2024-01-12 03:42:37,14.98327528,0.0002474,69.9998,270.2493,262.5074,97.5804,-1.7349e-05,-3e-06,0.0,0 STARLINK-5638,1 55426U 23014AM  24012.15460141 -.00000300  00000-0 -17349-4 0  9996,2 55426  69.9998 270.2493 0002474 262.5074  97.5804 14.98327528 52654,6950.201,96.107,573.785,570.346,0.0
55426.0,STARLINK-5638,PAYLOAD,2024-01-12 19:43:59,14.9831656,0.0002593,70.0001,268.5666,261.1179,98.9686,-9.9721e-05,-1.282e-05,0.0,0 STARLINK-5638,1 55426U 23014AM  24012.82221351 -.00001282  00000-0 -99721-4 0  9992,2 55426  70.0001 268.5666 0002593 261.1179  98.9686 14.98316560 52755,6950.234,96.108,573.902,570.297,0.0
55426.0,STARLINK-5638,PAYLOAD,2024-01-12 22:56:14,14.98371306,0.0002709,70.0,268.2299,252.7771,107.3092,-0.0010442,-0.00012543,0.0,0 STARLINK-5638,1 55426U 23014AM  24012.95572449 -.00012543  00000-0 -10442-2 0  9996,2 55426  70.0000 268.2299 0002709 252.7771 107.3092 14.98371306 53718,6950.065,96.104,573.813,570.047,0.0
55426.0,STARLINK-5638,PAYLOAD,2024-01-13 02:08:31,14.9831577,0.0002445,70.0,267.893,251.3494,108.74,-0.00010813,-1.382e-05,0.0,0 STARLINK-5638,1 55426U 23014AM  24013.08925635 -.00001382  00000-0 -10813-3 0  9992,2 55426  70.0000 267.8930 0002445 251.3494 108.7400 14.98315770 53732,6950.237,96.108,573.801,570.403,0.0
55426.0,STARLINK-5638,PAYLOAD,2024-01-13 19:45:59,14.98331081,0.0002648,69.9993,266.0402,255.7678,104.3187,7.7455e-05,8.31e-06,0.0,0 STARLINK-5638,1 55426U 23014AM  24013.82360357  .00000831  00000-0  77455-4 0  9990,2 55426  69.9993 266.0402 0002648 255.7678 104.3187 14.98331081 52907,6950.19,96.107,573.895,570.214,0.0
